[{"OBJECT_NAME":"IRIDIUM 151","OBJECT_ID":"2017-083E","EPOCH":"2026-04-04T06:33:10.979136","MEAN_MOTION":14.34217354,"ECCENTRICITY":0.00022422,"INCLINATION":86.4018,"RA_OF_ASC_NODE":352.9578,"ARG_OF_PERICENTER":84.4543,"MEAN_ANOMALY":275.6908,"EPHEMERIS_TYPE":0,"CLASSIFICATION_TYPE":"U","NORAD_CAT_ID":43074,"ELEMENT_SET_NO":999,"REV_AT_EPOCH":43354,"BSTAR":0.00011798714,"MEAN_MOTION_DOT":3.5e-6,"MEAN_MOTION_DDOT":0},{"OBJECT_NAME":"IRIDIUM 134","OBJECT_ID":"2017-083F","EPOCH":"2026-04-04T05:47:31.144416","MEAN_MOTION":14.34218813,"ECCENTRICITY":0.00022046,"INCLINATION":86.402,"RA_OF_ASC_NODE":352.9779,"ARG_OF_PERICENTER":88.7113,"MEAN_ANOMALY":271.4335,"EPHEMERIS_TYPE":0,"CLASSIFICATION_TYPE":"U","NORAD_CAT_ID":43075,"ELEMENT_SET_NO":999,"REV_AT_EPOCH":43350,"BSTAR":0.00013239289,"MEAN_MOTION_DOT":3.91e-6,"MEAN_MOTION_DDOT":0},{"OBJECT_NAME":"IRIDIUM 137","OBJECT_ID":"2017-083G","EPOCH":"2026-04-04T06:05:47.426496","MEAN_MOTION":14.34221102,"ECCENTRICITY":0.00026027,"INCLINATION":86.4023,"RA_OF_ASC_NODE":353.0639,"ARG_OF_PERICENTER":80.7767,"MEAN_ANOMALY":279.3723,"EPHEMERIS_TYPE":0,"CLASSIFICATION_TYPE":"U","NORAD_CAT_ID":43076,"ELEMENT_SET_NO":999,"REV_AT_EPOCH":43357,"BSTAR":0.00014767695,"MEAN_MOTION_DOT":4.33e-6,"MEAN_MOTION_DDOT":0},{"OBJECT_NAME":"IRIDIUM 141","OBJECT_ID":"2017-083H","EPOCH":"2026-04-04T05:56:39.401664","MEAN_MOTION":14.34219318,"ECCENTRICITY":0.00020852,"INCLINATION":86.4017,"RA_OF_ASC_NODE":352.9014,"ARG_OF_PERICENTER":83.7789,"MEAN_ANOMALY":276.3645,"EPHEMERIS_TYPE":0,"CLASSIFICATION_TYPE":"U","NORAD_CAT_ID":43077,"ELEMENT_SET_NO":999,"REV_AT_EPOCH":43357,"BSTAR":0.00014368872,"MEAN_MOTION_DOT":4.22e-6,"MEAN_MOTION_DDOT":0},{"OBJECT_NAME":"IRIDIUM 153","OBJECT_ID":"2017-083J","EPOCH":"2026-04-04T03:07:19.299936","MEAN_MOTION":14.34218821,"ECCENTRICITY":0.00018709,"INCLINATION":86.3967,"RA_OF_ASC_NODE":321.4545,"ARG_OF_PERICENTER":87.6598,"MEAN_ANOMALY":272.4812,"EPHEMERIS_TYPE":0,"CLASSIFICATION_TYPE":"U","NORAD_CAT_ID":43078,"ELEMENT_SET_NO":999,"REV_AT_EPOCH":43466,"BSTAR":0.00010883792,"MEAN_MOTION_DOT":3.25e-6,"MEAN_MOTION_DDOT":0},{"OBJECT_NAME":"IRIDIUM 131","OBJECT_ID":"2017-083K","EPOCH":"2026-04-04T05:38:23.129952","MEAN_MOTION":14.34218899,"ECCENTRICITY":0.00021874,"INCLINATION":86.4025,"RA_OF_ASC_NODE":353.0876,"ARG_OF_PERICENTER":82.374,"MEAN_ANOMALY":277.7705,"EPHEMERIS_TYPE":0,"CLASSIFICATION_TYPE":"U","NORAD_CAT_ID":43079,"ELEMENT_SET_NO":999,"REV_AT_EPOCH":43350,"BSTAR":0.00012007103,"MEAN_MOTION_DOT":3.56e-6,"MEAN_MOTION_DDOT":0},{"OBJECT_NAME":"IRIDIUM 144","OBJECT_ID":"2018-030A","EPOCH":"2026-04-04T03:16:27.364512","MEAN_MOTION":14.34217541,"ECCENTRICITY":0.0002276,"INCLINATION":86.3965,"RA_OF_ASC_NODE":321.3827,"ARG_OF_PERICENTER":88.8855,"MEAN_ANOMALY":271.2602,"EPHEMERIS_TYPE":0,"CLASSIFICATION_TYPE":"U","NORAD_CAT_ID":43249,"ELEMENT_SET_NO":999,"REV_AT_EPOCH":41952,"BSTAR":5.1289082e-5,"MEAN_MOTION_DOT":1.63e-6,"MEAN_MOTION_DDOT":0},{"OBJECT_NAME":"IRIDIUM 149","OBJECT_ID":"2018-030B","EPOCH":"2026-04-04T03:25:35.359968","MEAN_MOTION":14.34217106,"ECCENTRICITY":0.00019069,"INCLINATION":86.3962,"RA_OF_ASC_NODE":321.3477,"ARG_OF_PERICENTER":84.9372,"MEAN_ANOMALY":275.2041,"EPHEMERIS_TYPE":0,"CLASSIFICATION_TYPE":"U","NORAD_CAT_ID":43250,"ELEMENT_SET_NO":999,"REV_AT_EPOCH":41954,"BSTAR":4.60177e-6,"MEAN_MOTION_DOT":3.3e-7,"MEAN_MOTION_DDOT":0},{"OBJECT_NAME":"IRIDIUM 157","OBJECT_ID":"2018-030C","EPOCH":"2026-04-04T03:52:59.323872","MEAN_MOTION":14.34218648,"ECCENTRICITY":0.00021156,"INCLINATION":86.3966,"RA_OF_ASC_NODE":321.3917,"ARG_OF_PERICENTER":86.603,"MEAN_ANOMALY":273.5408,"EPHEMERIS_TYPE":0,"CLASSIFICATION_TYPE":"U","NORAD_CAT_ID":43251,"ELEMENT_SET_NO":999,"REV_AT_EPOCH":41952,"BSTAR":7.824446e-5,"MEAN_MOTION_DOT":2.39e-6,"MEAN_MOTION_DDOT":0},{"OBJECT_NAME":"IRIDIUM 140","OBJECT_ID":"2018-030D","EPOCH":"2026-04-04T02:39:55.369728","MEAN_MOTION":14.34217954,"ECCENTRICITY":0.00020229,"INCLINATION":86.3964,"RA_OF_ASC_NODE":321.4251,"ARG_OF_PERICENTER":88.1479,"MEAN_ANOMALY":271.9948,"EPHEMERIS_TYPE":0,"CLASSIFICATION_TYPE":"U","NORAD_CAT_ID":43252,"ELEMENT_SET_NO":999,"REV_AT_EPOCH":41957,"BSTAR":-2.6535306e-5,"MEAN_MOTION_DOT":-5.5e-7,"MEAN_MOTION_DDOT":0},{"OBJECT_NAME":"IRIDIUM 145","OBJECT_ID":"2018-030E","EPOCH":"2026-04-04T15:45:23.422176","MEAN_MOTION":14.34218438,"ECCENTRICITY":0.000247,"INCLINATION":86.3964,"RA_OF_ASC_NODE":321.17,"ARG_OF_PERICENTER":90.5198,"MEAN_ANOMALY":269.628,"EPHEMERIS_TYPE":0,"CLASSIFICATION_TYPE":"U","NORAD_CAT_ID":43253,"ELEMENT_SET_NO":999,"REV_AT_EPOCH":41958,"BSTAR":5.5198e-5,"MEAN_MOTION_DOT":1.74e-6,"MEAN_MOTION_DDOT":0},{"OBJECT_NAME":"IRIDIUM 146","OBJECT_ID":"2018-030F","EPOCH":"2026-04-04T03:34:43.387392","MEAN_MOTION":14.34218693,"ECCENTRICITY":0.00022606,"INCLINATION":86.3964,"RA_OF_ASC_NODE":321.3946,"ARG_OF_PERICENTER":87.3325,"MEAN_ANOMALY":272.813,"EPHEMERIS_TYPE":0,"CLASSIFICATION_TYPE":"U","NORAD_CAT_ID":43254,"ELEMENT_SET_NO":999,"REV_AT_EPOCH":41952,"BSTAR":9.5828494e-5,"MEAN_MOTION_DOT":2.88e-6,"MEAN_MOTION_DDOT":0},{"OBJECT_NAME":"IRIDIUM 148","OBJECT_ID":"2018-030G","EPOCH":"2026-04-04T02:49:02.874432","MEAN_MOTION":14.34221247,"ECCENTRICITY":0.00021366,"INCLINATION":86.3967,"RA_OF_ASC_NODE":321.4499,"ARG_OF_PERICENTER":85.3937,"MEAN_ANOMALY":274.7502,"EPHEMERIS_TYPE":0,"CLASSIFICATION_TYPE":"U","NORAD_CAT_ID":43255,"ELEMENT_SET_NO":999,"REV_AT_EPOCH":41955,"BSTAR":0.00012096168,"MEAN_MOTION_DOT":3.59e-6,"MEAN_MOTION_DDOT":0},{"OBJECT_NAME":"IRIDIUM 142","OBJECT_ID":"2018-030H","EPOCH":"2026-04-04T03:43:51.391488","MEAN_MOTION":14.34218528,"ECCENTRICITY":0.00023873,"INCLINATION":86.3962,"RA_OF_ASC_NODE":321.3257,"ARG_OF_PERICENTER":90.0157,"MEAN_ANOMALY":270.1312,"EPHEMERIS_TYPE":0,"CLASSIFICATION_TYPE":"U","NORAD_CAT_ID":43256,"ELEMENT_SET_NO":999,"REV_AT_EPOCH":41952,"BSTAR":6.8072997e-5,"MEAN_MOTION_DOT":2.1e-6,"MEAN_MOTION_DDOT":0},{"OBJECT_NAME":"IRIDIUM 150","OBJECT_ID":"2018-030J","EPOCH":"2026-04-04T02:58:11.372736","MEAN_MOTION":14.34218462,"ECCENTRICITY":0.00021696,"INCLINATION":86.3965,"RA_OF_ASC_NODE":321.4528,"ARG_OF_PERICENTER":88.4111,"MEAN_ANOMALY":271.7334,"EPHEMERIS_TYPE":0,"CLASSIFICATION_TYPE":"U","NORAD_CAT_ID":43257,"ELEMENT_SET_NO":999,"REV_AT_EPOCH":41954,"BSTAR":7.4950335e-5,"MEAN_MOTION_DOT":2.3e-6,"MEAN_MOTION_DDOT":0},{"OBJECT_NAME":"IRIDIUM 143","OBJECT_ID":"2018-030K","EPOCH":"2026-04-04T04:11:15.237888","MEAN_MOTION":14.34216869,"ECCENTRICITY":0.0002274,"INCLINATION":86.397,"RA_OF_ASC_NODE":321.5209,"ARG_OF_PERICENTER":88.1787,"MEAN_ANOMALY":271.9669,"EPHEMERIS_TYPE":0,"CLASSIFICATION_TYPE":"U","NORAD_CAT_ID":43258,"ELEMENT_SET_NO":999,"REV_AT_EPOCH":41948,"BSTAR":0.00012389521,"MEAN_MOTION_DOT":3.67e-6,"MEAN_MOTION_DDOT":0},{"OBJECT_NAME":"IRIDIUM 161","OBJECT_ID":"2018-047C","EPOCH":"2026-04-04T14:36:55.054656","MEAN_MOTION":14.43278006,"ECCENTRICITY":0.0002162,"INCLINATION":86.4454,"RA_OF_ASC_NODE":119.2465,"ARG_OF_PERICENTER":85.0212,"MEAN_ANOMALY":275.1235,"EPHEMERIS_TYPE":0,"CLASSIFICATION_TYPE":"U","NORAD_CAT_ID":43478,"ELEMENT_SET_NO":999,"REV_AT_EPOCH":41452,"BSTAR":5.5247e-5,"MEAN_MOTION_DOT":2.06e-6,"MEAN_MOTION_DDOT":0}]
