IRIDIUM 151             
1 43074U 17083E   26094.27304374  .00000350  00000+0  11799-3 0  9995
2 43074  86.4018 352.9578 0002242  84.4543 275.6908 14.34217354433544
IRIDIUM 134             
1 43075U 17083F   26094.24133269  .00000391  00000+0  13239-3 0  9992
2 43075  86.4020 352.9779 0002204  88.7113 271.4335 14.34218813433504
IRIDIUM 137             
1 43076U 17083G   26094.25402114  .00000433  00000+0  14768-3 0  9997
2 43076  86.4023 353.0639 0002602  80.7767 279.3723 14.34221102433574
IRIDIUM 141             
1 43077U 17083H   26094.24767826  .00000422  00000+0  14369-3 0  9996
2 43077  86.4017 352.9014 0002085  83.7789 276.3645 14.34219318433571
IRIDIUM 153             
1 43078U 17083J   26094.13008449  .00000325  00000+0  10884-3 0  9994
2 43078  86.3967 321.4545 0001870  87.6598 272.4812 14.34218821434669
IRIDIUM 131             
1 43079U 17083K   26094.23498993  .00000356  00000+0  12007-3 0  9996
2 43079  86.4025 353.0876 0002187  82.3740 277.7705 14.34218899433503
IRIDIUM 144             
1 43249U 18030A   26094.13642783  .00000163  00000+0  51289-4 0  9997
2 43249  86.3965 321.3827 0002276  88.8855 271.2602 14.34217541419529
IRIDIUM 149             
1 43250U 18030B   26094.14277037  .00000033  00000+0  46018-5 0  9997
2 43250  86.3962 321.3477 0001906  84.9372 275.2041 14.34217106419549
IRIDIUM 157             
1 43251U 18030C   26094.16179773  .00000239  00000+0  78244-4 0  9991
2 43251  86.3966 321.3917 0002115  86.6030 273.5408 14.34218648419524
IRIDIUM 140             
1 43252U 18030D   26094.11105752 -.00000055  00000+0 -26535-4 0  9997
2 43252  86.3964 321.4251 0002022  88.1479 271.9948 14.34217954419571
IRIDIUM 145             
1 43253U 18030E   26094.65652109  .00000174  00000+0  55198-4 0  9997
2 43253  86.3964 321.1700 0002470  90.5198 269.6280 14.34218438419582
IRIDIUM 146             
1 43254U 18030F   26094.14911328  .00000288  00000+0  95828-4 0  9993
2 43254  86.3964 321.3946 0002260  87.3325 272.8130 14.34218693419527
IRIDIUM 148             
1 43255U 18030G   26094.11739438  .00000359  00000+0  12096-3 0  9995
2 43255  86.3967 321.4499 0002136  85.3937 274.7502 14.34221247419550
IRIDIUM 142             
1 43256U 18030H   26094.15545592  .00000210  00000+0  68073-4 0  9999
2 43256  86.3962 321.3257 0002387  90.0157 270.1312 14.34218528419526
IRIDIUM 150             
1 43257U 18030J   26094.12374274  .00000230  00000+0  74950-4 0  9997
2 43257  86.3965 321.4528 0002169  88.4111 271.7334 14.34218462419541
IRIDIUM 143             
1 43258U 18030K   26094.17448192  .00000367  00000+0  12390-3 0  9994
2 43258  86.3970 321.5209 0002274  88.1787 271.9669 14.34216869419483
IRIDIUM 161             
1 43478U 18047C   26094.60897054  .00000206  00000+0  55247-4 0  9990
2 43478  86.4454 119.2465 0002162  85.0212 275.1235 14.43278006414522
